[{"OBJECT_NAME":"ICEYE-X54","OBJECT_ID":"2025-135AU","EPOCH":"2026-03-09T21:59:41.591040","MEAN_MOTION":14.93897113,"ECCENTRICITY":9.94e-5,"INCLINATION":97.759,"RA_OF_ASC_NODE":184.427,"ARG_OF_PERICENTER":275.8004,"MEAN_ANOMALY":84.3103,"EPHEMERIS_TYPE":0,"CLASSIFICATION_TYPE":"U","NORAD_CAT_ID":64570,"ELEMENT_SET_NO":999,"REV_AT_EPOCH":3907,"BSTAR":0.00047614283,"MEAN_MOTION_DOT":5.007e-5,"MEAN_MOTION_DDOT":0},{"OBJECT_NAME":"OKEAN-4","OBJECT_ID":"1994-066A","EPOCH":"2026-03-09T20:34:09.232320","MEAN_MOTION":14.96885016,"ECCENTRICITY":0.00147251,"INCLINATION":82.5373,"RA_OF_ASC_NODE":349.8556,"ARG_OF_PERICENTER":246.8531,"MEAN_ANOMALY":113.1141,"EPHEMERIS_TYPE":0,"CLASSIFICATION_TYPE":"U","NORAD_CAT_ID":23317,"ELEMENT_SET_NO":999,"REV_AT_EPOCH":70047,"BSTAR":0.00028288801,"MEAN_MOTION_DOT":3.276e-5,"MEAN_MOTION_DDOT":0}]
